ALOS (DAICHI)           
1 28931U 06002A   26033.57806315  .00001636  00000+0  28299-3 0  9998
2 28931  98.1162 349.7267 0002095  71.0728 289.0705 14.69687135 68321
H-2A R/B                
1 28932U 06002B   26033.36397386  .00007592  00000+0  38858-3 0  9998
2 28932  98.2351 177.3865 0053286   2.6445 357.5056 15.15702228 89085
RESURS-DK 1             
1 29228U 06021A   26034.14855611  .00002998  00000+0  17773-3 0  9993
2 29228  69.9349 326.3568 0004989 209.8874 150.2007 15.12528682 82304
CZ-4B R/B               
1 29507U 06046C   26034.10489342  .00004758  00000+0  24406-3 0  9997
2 29507  97.5656  79.1036 0034271  30.0358 330.2831 15.16518471 54801
CZ-2C R/B               
1 31114U 07010B   26033.92343844  .00000121  00000+0  74194-4 0  9991
2 31114  98.3970 148.9488 0059601  36.2822 324.2374 14.20233679974781
COSMO-SKYMED 1          
1 31598U 07023A   26034.16022395  .00003260  00000+0  29407-3 0  9996
2 31598  97.8857 224.9243 0001316  77.0181 283.1186 14.96255312  9740
COSMOS 2428             
1 31792U 07029A   26034.12816997  .00000386  00000+0  23290-3 0  9993
2 31792  70.9400 275.8939 0006913 315.7239  44.3328 14.12928341959211
SL-16 R/B               
1 31793U 07029B   26034.07966126  .00000342  00000+0  20202-3 0  9990
2 31793  70.9730 245.1367 0001827 274.0849 238.2807 14.14826043960470
KORONAS-FOTON           
1 33504U 09003A   26033.48199885  .00009817  00000+0  22616-3 0  9997
2 33504  82.4330 312.4502 0009047 289.1060  70.9207 15.42400390940310
CZ-2C R/B               
1 37731U 11030B   26033.62320115  .00001491  00000+0  19413-3 0  9995
2 37731  97.8484 351.6078 0054166 103.9967 346.2484 14.81084191784906
H-2A R/B                
1 38341U 12025E   26033.45661101  .00003608  00000+0  33040-3 0  9996
2 38341  98.4678 357.7090 0046453  68.6799 291.9369 14.94853461742952
SHIJIAN-16 (SJ-16)      
1 39358U 13057A   26034.16933748  .00001453  00000+0  14499-3 0  9992
2 39358  74.9707 250.4348 0017132 198.2065 161.8512 14.92225858666351
