CCSDS_OMM_VERS = 2.0
CREATION_DATE  = 
ORIGINATOR     = 

OBJECT_NAME    = ALOS (DAICHI)
OBJECT_ID      = 2006-002A
CENTER_NAME    = EARTH
REF_FRAME      = TEME
TIME_SYSTEM    = UTC
MEAN_ELEMENT_THEORY = SGP/SGP4

EPOCH          = 2026-02-02T13:52:24.656160
MEAN_MOTION    = 14.69687135
ECCENTRICITY   = .00020954
INCLINATION    = 98.1162
RA_OF_ASC_NODE = 349.7267
ARG_OF_PERICENTER = 71.0728
MEAN_ANOMALY   = 289.0705

EPHEMERIS_TYPE = 0
CLASSIFICATION_TYPE = U
NORAD_CAT_ID   = 28931
ELEMENT_SET_NO = 999
REV_AT_EPOCH   = 6832
BSTAR          = .28298837E-3
MEAN_MOTION_DOT = .1636E-4
MEAN_MOTION_DDOT = 0

CCSDS_OMM_VERS = 2.0
CREATION_DATE  = 
ORIGINATOR     = 

OBJECT_NAME    = H-2A R/B
OBJECT_ID      = 2006-002B
CENTER_NAME    = EARTH
REF_FRAME      = TEME
TIME_SYSTEM    = UTC
MEAN_ELEMENT_THEORY = SGP/SGP4

EPOCH          = 2026-02-02T08:44:07.341504
MEAN_MOTION    = 15.15702228
ECCENTRICITY   = .00532861
INCLINATION    = 98.2351
RA_OF_ASC_NODE = 177.3865
ARG_OF_PERICENTER = 2.6445
MEAN_ANOMALY   = 357.5056

EPHEMERIS_TYPE = 0
CLASSIFICATION_TYPE = U
NORAD_CAT_ID   = 28932
ELEMENT_SET_NO = 999
REV_AT_EPOCH   = 8908
BSTAR          = .3885795E-3
MEAN_MOTION_DOT = .7592E-4
MEAN_MOTION_DDOT = 0

CCSDS_OMM_VERS = 2.0
CREATION_DATE  = 
ORIGINATOR     = 

OBJECT_NAME    = RESURS-DK 1
OBJECT_ID      = 2006-021A
CENTER_NAME    = EARTH
REF_FRAME      = TEME
TIME_SYSTEM    = UTC
MEAN_ELEMENT_THEORY = SGP/SGP4

EPOCH          = 2026-02-03T03:33:55.247904
MEAN_MOTION    = 15.12528682
ECCENTRICITY   = .0004989
INCLINATION    = 69.9349
RA_OF_ASC_NODE = 326.3568
ARG_OF_PERICENTER = 209.8874
MEAN_ANOMALY   = 150.2007

EPHEMERIS_TYPE = 0
CLASSIFICATION_TYPE = U
NORAD_CAT_ID   = 29228
ELEMENT_SET_NO = 999
REV_AT_EPOCH   = 8230
BSTAR          = .17773E-3
MEAN_MOTION_DOT = .2998E-4
MEAN_MOTION_DDOT = 0

CCSDS_OMM_VERS = 2.0
CREATION_DATE  = 
ORIGINATOR     = 

OBJECT_NAME    = CZ-4B R/B
OBJECT_ID      = 2006-046C
CENTER_NAME    = EARTH
REF_FRAME      = TEME
TIME_SYSTEM    = UTC
MEAN_ELEMENT_THEORY = SGP/SGP4

EPOCH          = 2026-02-03T02:31:02.791488
MEAN_MOTION    = 15.16518471
ECCENTRICITY   = .0034271
INCLINATION    = 97.5656
RA_OF_ASC_NODE = 79.1036
ARG_OF_PERICENTER = 30.0358
MEAN_ANOMALY   = 330.2831

EPHEMERIS_TYPE = 0
CLASSIFICATION_TYPE = U
NORAD_CAT_ID   = 29507
ELEMENT_SET_NO = 999
REV_AT_EPOCH   = 5480
BSTAR          = .24406E-3
MEAN_MOTION_DOT = .4758E-4
MEAN_MOTION_DDOT = 0

CCSDS_OMM_VERS = 2.0
CREATION_DATE  = 
ORIGINATOR     = 

OBJECT_NAME    = CZ-2C R/B
OBJECT_ID      = 2007-010B
CENTER_NAME    = EARTH
REF_FRAME      = TEME
TIME_SYSTEM    = UTC
MEAN_ELEMENT_THEORY = SGP/SGP4

EPOCH          = 2026-02-02T22:09:45.081216
MEAN_MOTION    = 14.20233679
ECCENTRICITY   = .0059601
INCLINATION    = 98.3970
RA_OF_ASC_NODE = 148.9488
ARG_OF_PERICENTER = 36.2822
MEAN_ANOMALY   = 324.2374

EPHEMERIS_TYPE = 0
CLASSIFICATION_TYPE = U
NORAD_CAT_ID   = 31114
ELEMENT_SET_NO = 999
REV_AT_EPOCH   = 97478
BSTAR          = .74194E-4
MEAN_MOTION_DOT = .121E-5
MEAN_MOTION_DDOT = 0

CCSDS_OMM_VERS = 2.0
CREATION_DATE  = 
ORIGINATOR     = 

OBJECT_NAME    = COSMO-SKYMED 1
OBJECT_ID      = 2007-023A
CENTER_NAME    = EARTH
REF_FRAME      = TEME
TIME_SYSTEM    = UTC
MEAN_ELEMENT_THEORY = SGP/SGP4

EPOCH          = 2026-02-03T03:50:43.349280
MEAN_MOTION    = 14.96255312
ECCENTRICITY   = .0001316
INCLINATION    = 97.8857
RA_OF_ASC_NODE = 224.9243
ARG_OF_PERICENTER = 77.0181
MEAN_ANOMALY   = 283.1186

EPHEMERIS_TYPE = 0
CLASSIFICATION_TYPE = U
NORAD_CAT_ID   = 31598
ELEMENT_SET_NO = 999
REV_AT_EPOCH   = 974
BSTAR          = .29407E-3
MEAN_MOTION_DOT = .326E-4
MEAN_MOTION_DDOT = 0

CCSDS_OMM_VERS = 2.0
CREATION_DATE  = 
ORIGINATOR     = 

OBJECT_NAME    = COSMOS 2428
OBJECT_ID      = 2007-029A
CENTER_NAME    = EARTH
REF_FRAME      = TEME
TIME_SYSTEM    = UTC
MEAN_ELEMENT_THEORY = SGP/SGP4

EPOCH          = 2026-02-03T03:04:33.885408
MEAN_MOTION    = 14.12928341
ECCENTRICITY   = .0006913
INCLINATION    = 70.9400
RA_OF_ASC_NODE = 275.8939
ARG_OF_PERICENTER = 315.7239
MEAN_ANOMALY   = 44.3328

EPHEMERIS_TYPE = 0
CLASSIFICATION_TYPE = U
NORAD_CAT_ID   = 31792
ELEMENT_SET_NO = 999
REV_AT_EPOCH   = 95921
BSTAR          = .2329E-3
MEAN_MOTION_DOT = .386E-5
MEAN_MOTION_DDOT = 0

CCSDS_OMM_VERS = 2.0
CREATION_DATE  = 
ORIGINATOR     = 

OBJECT_NAME    = SL-16 R/B
OBJECT_ID      = 2007-029B
CENTER_NAME    = EARTH
REF_FRAME      = TEME
TIME_SYSTEM    = UTC
MEAN_ELEMENT_THEORY = SGP/SGP4

EPOCH          = 2026-02-03T01:54:42.732864
MEAN_MOTION    = 14.14826043
ECCENTRICITY   = .0001827
INCLINATION    = 70.9730
RA_OF_ASC_NODE = 245.1367
ARG_OF_PERICENTER = 274.0849
MEAN_ANOMALY   = 238.2807

EPHEMERIS_TYPE = 0
CLASSIFICATION_TYPE = U
NORAD_CAT_ID   = 31793
ELEMENT_SET_NO = 999
REV_AT_EPOCH   = 96047
BSTAR          = .20202E-3
MEAN_MOTION_DOT = .342E-5
MEAN_MOTION_DDOT = 0

CCSDS_OMM_VERS = 2.0
CREATION_DATE  = 
ORIGINATOR     = 

OBJECT_NAME    = KORONAS-FOTON
OBJECT_ID      = 2009-003A
CENTER_NAME    = EARTH
REF_FRAME      = TEME
TIME_SYSTEM    = UTC
MEAN_ELEMENT_THEORY = SGP/SGP4

EPOCH          = 2026-02-02T11:34:04.700640
MEAN_MOTION    = 15.42400390
ECCENTRICITY   = .00090472
INCLINATION    = 82.4330
RA_OF_ASC_NODE = 312.4502
ARG_OF_PERICENTER = 289.1060
MEAN_ANOMALY   = 70.9207

EPHEMERIS_TYPE = 0
CLASSIFICATION_TYPE = U
NORAD_CAT_ID   = 33504
ELEMENT_SET_NO = 999
REV_AT_EPOCH   = 94031
BSTAR          = .22615985E-3
MEAN_MOTION_DOT = .9817E-4
MEAN_MOTION_DDOT = 0

CCSDS_OMM_VERS = 2.0
CREATION_DATE  = 
ORIGINATOR     = 

OBJECT_NAME    = CZ-2C R/B
OBJECT_ID      = 2011-030B
CENTER_NAME    = EARTH
REF_FRAME      = TEME
TIME_SYSTEM    = UTC
MEAN_ELEMENT_THEORY = SGP/SGP4

EPOCH          = 2026-02-02T14:57:24.579360
MEAN_MOTION    = 14.81084191
ECCENTRICITY   = .00541666
INCLINATION    = 97.8484
RA_OF_ASC_NODE = 351.6078
ARG_OF_PERICENTER = 103.9967
MEAN_ANOMALY   = 346.2484

EPHEMERIS_TYPE = 0
CLASSIFICATION_TYPE = U
NORAD_CAT_ID   = 37731
ELEMENT_SET_NO = 999
REV_AT_EPOCH   = 78490
BSTAR          = .19412952E-3
MEAN_MOTION_DOT = .1491E-4
MEAN_MOTION_DDOT = 0

CCSDS_OMM_VERS = 2.0
CREATION_DATE  = 
ORIGINATOR     = 

OBJECT_NAME    = H-2A R/B
OBJECT_ID      = 2012-025E
CENTER_NAME    = EARTH
REF_FRAME      = TEME
TIME_SYSTEM    = UTC
MEAN_ELEMENT_THEORY = SGP/SGP4

EPOCH          = 2026-02-02T10:57:31.191264
MEAN_MOTION    = 14.94853461
ECCENTRICITY   = .00464538
INCLINATION    = 98.4678
RA_OF_ASC_NODE = 357.7090
ARG_OF_PERICENTER = 68.6799
MEAN_ANOMALY   = 291.9369

EPHEMERIS_TYPE = 0
CLASSIFICATION_TYPE = U
NORAD_CAT_ID   = 38341
ELEMENT_SET_NO = 999
REV_AT_EPOCH   = 74295
BSTAR          = .33040369E-3
MEAN_MOTION_DOT = .3608E-4
MEAN_MOTION_DDOT = 0

CCSDS_OMM_VERS = 2.0
CREATION_DATE  = 
ORIGINATOR     = 

OBJECT_NAME    = SHIJIAN-16 (SJ-16)
OBJECT_ID      = 2013-057A
CENTER_NAME    = EARTH
REF_FRAME      = TEME
TIME_SYSTEM    = UTC
MEAN_ELEMENT_THEORY = SGP/SGP4

EPOCH          = 2026-02-03T04:03:50.758272
MEAN_MOTION    = 14.92225858
ECCENTRICITY   = .0017132
INCLINATION    = 74.9707
RA_OF_ASC_NODE = 250.4348
ARG_OF_PERICENTER = 198.2065
MEAN_ANOMALY   = 161.8512

EPHEMERIS_TYPE = 0
CLASSIFICATION_TYPE = U
NORAD_CAT_ID   = 39358
ELEMENT_SET_NO = 999
REV_AT_EPOCH   = 66635
BSTAR          = .14499E-3
MEAN_MOTION_DOT = .1453E-4
MEAN_MOTION_DDOT = 0

